0 IRS P4 (OCEANSAT 1)
1 25758U 99029C   13281.28719625  .00000175  00000-0  54823-4 0  4704
2 25758 098.2422 009.5250 0004246 100.3735 295.8575 14.51445663761129
0 IRS P4 (OCEANSAT 1)
1 25758U 99029C   13282.32208750  .00000191  00000-0  58889-4 0  4717
2 25758 098.2423 010.5396 0004199 097.9857 302.5822 14.51447399761271
0 IRS P4 (OCEANSAT 1)
1 25758U 99029C   13283.35636458  .00000197  00000-0  60163-4 0  4726
2 25758 098.2424 011.5537 0004232 095.8274 305.8776 14.51448013761423
0 IRS P4 (OCEANSAT 1)
1 25758U 99029C   13286.17726281  .00000212  00000-0  63968-4 0  4749
2 25758 098.2426 014.3197 0004188 089.6793 283.1540 14.51449024761830
0 IRS P4 (OCEANSAT 1)
1 25758U 99029C   13287.35472296  .00000247  00000-0  72816-4 0  4755
2 25758 098.2425 015.4743 0004132 086.9422 314.7578 14.51449449762010
0 IRS P4 (OCEANSAT 1)
1 25758U 99029C   13288.81538824  .00000318  00000-0  90508-4 0  4765
2 25758 098.2424 016.9067 0004031 083.3289 026.1803 14.51450745762223
0 IRS P4 (OCEANSAT 1)
1 25758U 99029C   13290.17560598  .00000294  00000-0  84587-4 0  4774
2 25758 098.2421 018.2406 0004004 080.0999 292.6723 14.51452030762415
0 IRS P4 (OCEANSAT 1)
1 25758U 99029C   13291.35306956  .00000307  00000-0  87743-4 0  4784
2 25758 098.2419 019.3952 0003952 077.3467 324.3230 14.51452798762596
0 IRS P4 (OCEANSAT 1)
1 25758U 99029C   13293.14890326  .00000352  00000-0  99079-4 0  4798
2 25758 098.2416 021.1561 0003929 073.5579 346.2415 14.51453981762858
0 IRS P4 (OCEANSAT 1)
1 25758U 99029C   13295.14833521  .00000346  00000-0  97701-4 0  4809
2 25758 098.2416 023.1166 0003843 069.0356 352.1243 14.51455616763144
